STARLINK-32546          
1 62134U 24222W   26068.53800653  .00023089  00000+0  84573-3 0  9991
2 62134  42.9997 133.7635 0001489 270.8026  89.2655 15.27587305 72651
AL MUNTHER              
1 63240U 25052AG  26068.64540749  .00017933  00000+0  65015-3 0  9992
2 63240  97.4001 323.9152 0008027 130.7043 229.4895 15.28381521 54798
